MOLNIYA 2-9             
1 07276U 74026A   22266.32195743  .00000092  00000+0  00000+0 0  9992
2 07276  64.2797 213.5579 6442025 280.1004  17.5889  2.45097499251611
MOLNIYA 2-10            
1 07376U 74056A   22264.36097662 -.00000570  00000+0  00000+0 0  9991
2 07376  64.2348  84.8316 6745272 285.9588  13.6654  2.01075563352284
MOLNIYA 1-S             
1 07392U 74060A   22270.11294715  .00000059  00000+0  00000+0 0  9993
2 07392   4.8655 281.4156 0011646 214.4880 330.3422  1.00207530120539
MOLNIYA 1-29            
1 07780U 75036A   22269.36530153 -.00000019  00000+0 -94132-1 0  9991
2 07780  63.4150 204.0508 6866571 288.4467  12.2090  2.00618831347670
MOLNIYA 2-14            
1 08195U 75081A   22269.12846558 -.00000433  00000+0  00000+0 0  9993
2 08195  63.3809 177.2212 6776352 292.6558  11.7260  2.02064697344924
MOLNIYA 1-32            
1 08601U 76006A   22269.00513344 -.00001337  00000+0 -11449-1 0  9990
2 08601  63.4798 283.6853 7222161 283.8888  11.1711  1.99983632 54679
MOLNIYA 1-36            
1 09880U 77021A   22268.97688843 -.00000774  00000+0  00000+0 0  9992
2 09880  63.5079 255.3968 7143831 289.6507  10.2282  2.00888541231387
MOLNIYA 3-8             
1 10455U 77105A   22264.72174246 -.00000922  00000+0  63513-3 0  9998
2 10455  63.4146 343.2367 7363106 282.3189  10.9103  2.00805064329078
MOLNIYA 1-40            
1 10925U 78055A   22263.42528072  .00000171  00000+0  00000+0 0  9994
2 10925  63.4227  34.6240 7266648 280.6858  11.8576  2.00734858324585
MOLNIYA 3-10            
1 11057U 78095A   22269.60083677  .00000224  00000+0  10987-2 0  9995
2 11057  63.2014   2.0233 5788634 311.0743  11.7821  4.09856731387878
MOLNIYA 3-13            
1 11896U 80063A   22268.15154156  .00000198  00000+0  00000+0 0  9996
2 11896  62.7196 124.6652 7116378 276.4145  13.9871  2.00664335309095
MOLNIYA 1-49            
1 12156U 81009A   22268.82551295  .00000489  00000+0 -16471-2 0  9992
2 12156  61.6937 150.1862 7286723 263.7847  16.8797  2.05704278223554
MOLNIYA 1-52            
1 13012U 81123A   22269.04525807  .00000455  00000+0 -18151-2 0  9996
2 13012  61.6805 264.2447 7228713 256.1655  20.5970  2.00377056298590
MOLNIYA 1-53            
1 13070U 82015A   22268.76057508 -.00001200  00000+0 -26707-1 0  9992
2 13070  62.6065 201.8741 7015624 282.9076  12.7772  2.00675088297279
MOLNIYA 3-20            
1 13875U 83015A   22269.30546466  .00001416  00000+0  10453-2 0  9992
2 13875  62.6850 336.8027 7399990 259.0043  17.6989  2.00593178225735
MOLNIYA 1-56            
1 13890U 83019A   22264.71762538 -.00001416  00000+0  15595-3 0  9997
2 13890  62.9411   2.6396 7452737 264.8943  15.1230  1.99890773288523
MOLNIYA 1-63            
1 15429U 84124A   22266.21037258  .00000475  00000+0  00000+0 0  9990
2 15429  63.7596 158.4210 6659134 259.0164 333.9851  2.00857553276711
MOLNIYA 3-24            
1 15738U 85040A   22265.56798304  .00000032  00000+0  00000+0 0  9993
2 15738  63.6542  64.6395 6830424 247.2442  30.5774  2.55627746306354
MOLNIYA 3-27            
1 16393U 85117A   22269.92300992  .00000021  00000+0  00000+0 0  9990
2 16393  64.3739  68.2312 7011202 247.8177  27.9747  2.12397046276350
MOLNIYA 1-69            
1 17078U 86089A   22267.04744506  .00000249  00000+0  00000+0 0  9996
2 17078  63.9870 177.2219 6661947 257.4064  25.9530  2.00676951262802
MOLNIYA 3-31            
1 17328U 87008A   22269.14695484  .00000475  00000+0  00000+0 0  9990
2 17328  63.6942 116.6599 7073000 253.6021  23.6890  2.00643506257914
MOLNIYA 1-71            
1 18946U 88017A   22263.60683823 -.00000300  00000+0  00000+0 0  9995
2 18946  63.3940 111.0144 7181903 256.3491  21.0899  2.00625980252961
MOLNIYA 1-75            
1 19807U 89014A   22265.82564940 -.00000026  00000+0  00000+0 0  9999
2 19807  64.0325 273.9363 6833724 266.5963  19.6667  2.00581364245959
MOLNIYA 1-80            
1 21118U 91012A   22266.07547268 -.00000411  00000+0  00000+0 0  9998
2 21118  65.1952 322.3221 6776392 276.3832  16.5410  2.05240643232986
MOLNIYA 3-40            
1 21196U 91022A   22266.36279847  .00001152  00000+0  00000+0 0  9994
2 21196  65.1014 315.9214 6805253 273.1965  17.4181  2.02999469231676
MOLNIYA 1-81            
1 21426U 91043A   22266.22882768 -.00000032  00000+0  00000+0 0  9997
2 21426  64.0827 331.6614 7091335 266.4731  17.5825  2.00636242229124
MOLNIYA 3-41            
1 21706U 91065A   22268.71925735 -.00000786  00000+0  00000+0 0  9996
2 21706  64.0938 155.0977 6867262 254.9636  25.1491  2.04362070228912
MOLNIYA 3-42            
1 22178U 92067A   22264.51575841  .00000148  00000+0  00000+0 0  9997
2 22178  64.6731 205.8446 6423108 265.5151  23.9852  2.20435622226631
MOLNIYA 1-86            
1 22671U 93035A   22269.82642790  .00000392  00000+0  51477-3 0  9997
2 22671  63.0749 177.9801 4862750   8.6427 357.4236  5.62719551358008
MOLNIYA 1-87            
1 22949U 93079A   22268.61898035  .00000786  00000+0  00000+0 0  9993
2 22949  64.0528  80.7689 6889329 283.7915  13.3838  2.02871921 76967
MOLNIYA 1-88            
1 23420U 94081A   22268.04702143  .00000099  00000+0  00000+0 0  9990
2 23420  64.2765 173.7641 5798014 281.2209  22.1048  3.34496113117033
MOLNIYA 3-47            
1 23642U 95042A   22269.77924276 -.00000385  00000+0  00000+0 0  9997
2 23642  64.1700  62.3186 6938246 284.0303  13.0406  2.01927008199159
MOLNIYA 1-90            
1 24960U 97054A   22269.76000966  .00000126  00000+0 -86289-4 0  9997
2 24960  63.6538 139.7376 6105969 298.0084  13.9804  3.18687327211315
MOLNIYA 1-91            
1 25485U 98054A   22269.31493499  .00000201  00000+0  22925-2 0  9997
2 25485  63.0547 134.5322 6771962 291.8879 220.1224  2.36442370180769
MOLNIYA 3-50            
1 25847U 99036A   22269.19234365 -.00000053  00000+0 -31330-2 0  9998
2 25847  63.2432 318.9220 7365214 282.2465  10.8144  2.00669650170134
